ONEWEB-0379             
1 49305U 21090AC  25157.09211096  .00000141  00000+0  34485-3 0  9993
2 49305  87.9039   4.5270 0001671  87.4797 272.6524 13.14501915178154
ONEWEB-0380             
1 49306U 21090AD  25157.36127479  .00000023  00000+0  25089-4 0  9995
2 49306  87.9231  19.6899 0001900  77.6530 282.4816 13.19726966176852
ONEWEB-0381             
1 49307U 21090AE  25157.48040697  .00000136  00000+0  30319-3 0  9991
2 49307  87.9260 349.2647 0001784  80.9319 279.2016 13.20771371180235
ONEWEB-0382             
1 49308U 21090AF  25157.46777118  .00000096  00000+0  20528-3 0  9991
2 49308  87.9259 349.2617 0001589  79.8935 280.2377 13.20771716180229
ONEWEB-0383             
1 49309U 21090AG  25157.54247872  .00000005  00000+0 -22004-4 0  9993
2 49309  87.9036   4.4181 0001577  86.9926 273.1385 13.14503095178240
ONEWEB-0384             
1 49310U 21090AH  25157.23669691  .00000135  00000+0  30001-3 0  9996
2 49310  87.9263 349.3243 0001412  77.0940 283.0351 13.20785662180200
ONEWEB-0385             
1 49311U 21090AJ  25157.45988895  .00000095  00000+0  20119-3 0  9995
2 49311  87.9261 349.2810 0001704  86.1512 273.9816 13.20771217180203
ONEWEB-0386             
1 49312U 21090AK  25157.47723919  .00000115  00000+0  25120-3 0  9992
2 49312  87.9253 349.2484 0001544  84.6261 275.5048 13.20771661180228
